{"type": "FeatureCollection", "features": [{"type": "Feature", "properties": {"norad_id": 28890, "name": "BEIJING 1", "group": "dmc", "lat": -73.18040493709951, "lon": -90.6465055044511, "alt_km": 695.9587978135733, "timestamp": "2025-12-16T13:52:37.196239+00:00", "meta": {"OBJECT_NAME": "BEIJING 1", "OBJECT_ID": "2005-043A", "EPOCH": "2025-12-15T23:35:13.177824", "MEAN_MOTION": 14.63369741, "ECCENTRICITY": 0.00154838, "INCLINATION": 98.2647, "RA_OF_ASC_NODE": 117.4967, "ARG_OF_PERICENTER": 131.5746, "MEAN_ANOMALY": 228.6786, "EPHEMERIS_TYPE": 0, "CLASSIFICATION_TYPE": "U", "NORAD_CAT_ID": 28890, "ELEMENT_SET_NO": 999, "REV_AT_EPOCH": 7385, "BSTAR": 7.951971e-05, "MEAN_MOTION_DOT": 3.63e-06, "MEAN_MOTION_DDOT": 0}, "tle": {"line1": "1 28890U 05043A   25349.98279141  .00000363  00000+0  79520-4 0  9991", "line2": "2 28890  98.2647 117.4967 0015483 131.5746 228.6786 14.63369741 73854"}}, "geometry": {"type": "Point", "coordinates": [-90.6465055044511, -73.18040493709951]}}, {"type": "Feature", "properties": {"norad_id": 33320, "name": "HUANJING 1A (HJ-1A)", "group": "dmc", "lat": -18.709191904450854, "lon": 156.10644628863452, "alt_km": 637.6185672980728, "timestamp": "2025-12-16T13:52:37.196263+00:00", "meta": {"OBJECT_NAME": "HUANJING 1A (HJ-1A)", "OBJECT_ID": "2008-041A", "EPOCH": "2025-12-16T00:01:59.060928", "MEAN_MOTION": 14.83407664, "ECCENTRICITY": 0.00199387, "INCLINATION": 97.6541, "RA_OF_ASC_NODE": 338.164, "ARG_OF_PERICENTER": 24.1736, "MEAN_ANOMALY": 336.041, "EPHEMERIS_TYPE": 0, "CLASSIFICATION_TYPE": "U", "NORAD_CAT_ID": 33320, "ELEMENT_SET_NO": 999, "REV_AT_EPOCH": 93124, "BSTAR": 0.00022448809, "MEAN_MOTION_DOT": 1.797e-05, "MEAN_MOTION_DDOT": 0}, "tle": {"line1": "1 33320U 08041A   25350.00137802  .00001797  00000+0  22449-3 0  9997", "line2": "2 33320  97.6541 338.1640 0019938  24.1736 336.0410 14.83407664931242"}}, "geometry": {"type": "Point", "coordinates": [156.10644628863452, -18.709191904450854]}}, {"type": "Feature", "properties": {"norad_id": 33321, "name": "HUANJING 1B (HJ-1B)", "group": "dmc", "lat": 51.128246950809114, "lon": -27.181869821495432, "alt_km": 589.5197743232848, "timestamp": "2025-12-16T13:52:37.196277+00:00", "meta": {"OBJECT_NAME": "HUANJING 1B (HJ-1B)", "OBJECT_ID": "2008-041B", "EPOCH": "2025-12-15T23:04:12.243648", "MEAN_MOTION": 14.82832926, "ECCENTRICITY": 0.00381785, "INCLINATION": 97.6401, "RA_OF_ASC_NODE": 341.8142, "ARG_OF_PERICENTER": 65.5438, "MEAN_ANOMALY": 294.9752, "EPHEMERIS_TYPE": 0, "CLASSIFICATION_TYPE": "U", "NORAD_CAT_ID": 33321, "ELEMENT_SET_NO": 999, "REV_AT_EPOCH": 93125, "BSTAR": 0.00018464245, "MEAN_MOTION_DOT": 1.462e-05, "MEAN_MOTION_DDOT": 0}, "tle": {"line1": "1 33321U 08041B   25349.96125282  .00001462  00000+0  18464-3 0  9991", "line2": "2 33321  97.6401 341.8142 0038178  65.5438 294.9752 14.82832926931255"}}, "geometry": {"type": "Point", "coordinates": [-27.181869821495432, 51.128246950809114]}}, {"type": "Feature", "properties": {"norad_id": 33446, "name": "YAOGAN-4", "group": "dmc", "lat": -37.91071062752457, "lon": -73.13791901628831, "alt_km": 618.1114898787146, "timestamp": "2025-12-16T13:52:37.196290+00:00", "meta": {"OBJECT_NAME": "YAOGAN-4", "OBJECT_ID": "2008-061A", "EPOCH": "2025-12-15T18:36:47.735136", "MEAN_MOTION": 14.82692757, "ECCENTRICITY": 0.00133523, "INCLINATION": 97.9181, "RA_OF_ASC_NODE": 279.845, "ARG_OF_PERICENTER": 312.7719, "MEAN_ANOMALY": 47.237, "EPHEMERIS_TYPE": 0, "CLASSIFICATION_TYPE": "U", "NORAD_CAT_ID": 33446, "ELEMENT_SET_NO": 999, "REV_AT_EPOCH": 91848, "BSTAR": 0.00015255077, "MEAN_MOTION_DOT": 1.178e-05, "MEAN_MOTION_DDOT": 0}, "tle": {"line1": "1 33446U 08061A   25349.77555249  .00001178  00000+0  15255-3 0  9999", "line2": "2 33446  97.9181 279.8450 0013352 312.7719  47.2370 14.82692757918480"}}, "geometry": {"type": "Point", "coordinates": [-73.13791901628831, -37.91071062752457]}}, {"type": "Feature", "properties": {"norad_id": 35681, "name": "DEIMOS-1", "group": "dmc", "lat": -15.219934786996514, "lon": 153.1156283596126, "alt_km": 649.9419723199426, "timestamp": "2025-12-16T13:52:37.196302+00:00", "meta": {"OBJECT_NAME": "DEIMOS-1", "OBJECT_ID": "2009-041A", "EPOCH": "2025-12-15T23:17:35.162304", "MEAN_MOTION": 14.74960608, "ECCENTRICITY": 0.00026843, "INCLINATION": 97.7144, "RA_OF_ASC_NODE": 150.423, "ARG_OF_PERICENTER": 73.7443, "MEAN_ANOMALY": 286.4062, "EPHEMERIS_TYPE": 0, "CLASSIFICATION_TYPE": "U", "NORAD_CAT_ID": 35681, "ELEMENT_SET_NO": 999, "REV_AT_EPOCH": 87987, "BSTAR": 0.00017741766, "MEAN_MOTION_DOT": 1.145e-05, "MEAN_MOTION_DDOT": 0}, "tle": {"line1": "1 35681U 09041A   25349.97054586  .00001145  00000+0  17742-3 0  9998", "line2": "2 35681  97.7144 150.4230 0002684  73.7443 286.4062 14.74960608879872"}}, "geometry": {"type": "Point", "coordinates": [153.1156283596126, -15.219934786996514]}}, {"type": "Feature", "properties": {"norad_id": 35683, "name": "UK-DMC 2", "group": "dmc", "lat": 8.933920446957512, "lon": 124.12804327044364, "alt_km": 644.8178019769302, "timestamp": "2025-12-16T13:52:37.196313+00:00", "meta": {"OBJECT_NAME": "UK-DMC 2", "OBJECT_ID": "2009-041C", "EPOCH": "2025-12-15T23:11:22.400736", "MEAN_MOTION": 14.75631591, "ECCENTRICITY": 0.00014731, "INCLINATION": 97.8554, "RA_OF_ASC_NODE": 124.7772, "ARG_OF_PERICENTER": 95.3741, "MEAN_ANOMALY": 264.7637, "EPHEMERIS_TYPE": 0, "CLASSIFICATION_TYPE": "U", "NORAD_CAT_ID": 35683, "ELEMENT_SET_NO": 999, "REV_AT_EPOCH": 87954, "BSTAR": 0.00019991378, "MEAN_MOTION_DOT": 1.315e-05, "MEAN_MOTION_DDOT": 0}, "tle": {"line1": "1 35683U 09041C   25349.96623149  .00001315  00000+0  19991-3 0  9993", "line2": "2 35683  97.8554 124.7772 0001473  95.3741 264.7637 14.75631591879549"}}, "geometry": {"type": "Point", "coordinates": [124.12804327044364, 8.933920446957512]}}, {"type": "Feature", "properties": {"norad_id": 40715, "name": "DMC3-FM1", "group": "dmc", "lat": -13.485169213242472, "lon": 35.778762172153094, "alt_km": 618.0187644623547, "timestamp": "2025-12-16T13:52:37.196324+00:00", "meta": {"OBJECT_NAME": "DMC3-FM1", "OBJECT_ID": "2015-032A", "EPOCH": "2025-12-15T22:27:29.703744", "MEAN_MOTION": 14.85449142, "ECCENTRICITY": 0.00044079, "INCLINATION": 97.6694, "RA_OF_ASC_NODE": 217.0117, "ARG_OF_PERICENTER": 309.3252, "MEAN_ANOMALY": 50.7573, "EPHEMERIS_TYPE": 0, "CLASSIFICATION_TYPE": "U", "NORAD_CAT_ID": 40715, "ELEMENT_SET_NO": 999, "REV_AT_EPOCH": 56270, "BSTAR": 0.00016495272, "MEAN_MOTION_DOT": 1.371e-05, "MEAN_MOTION_DDOT": 0}, "tle": {"line1": "1 40715U 15032A   25349.93576046  .00001371  00000+0  16495-3 0  9990", "line2": "2 40715  97.6694 217.0117 0004407 309.3252  50.7573 14.85449142562707"}}, "geometry": {"type": "Point", "coordinates": [35.778762172153094, -13.485169213242472]}}, {"type": "Feature", "properties": {"norad_id": 40716, "name": "DMC3-FM2", "group": "dmc", "lat": 71.71284395505728, "lon": -165.00649339468598, "alt_km": 607.0380228587364, "timestamp": "2025-12-16T13:52:37.196334+00:00", "meta": {"OBJECT_NAME": "DMC3-FM2", "OBJECT_ID": "2015-032B", "EPOCH": "2025-12-15T22:59:52.933056", "MEAN_MOTION": 14.85450038, "ECCENTRICITY": 0.00050614, "INCLINATION": 97.6752, "RA_OF_ASC_NODE": 218.4797, "ARG_OF_PERICENTER": 315.3506, "MEAN_ANOMALY": 44.7301, "EPHEMERIS_TYPE": 0, "CLASSIFICATION_TYPE": "U", "NORAD_CAT_ID": 40716, "ELEMENT_SET_NO": 999, "REV_AT_EPOCH": 56270, "BSTAR": 0.00011415538, "MEAN_MOTION_DOT": 9.33e-06, "MEAN_MOTION_DDOT": 0}, "tle": {"line1": "1 40716U 15032B   25349.95825154  .00000933  00000+0  11416-3 0  9991", "line2": "2 40716  97.6752 218.4797 0005061 315.3506  44.7301 14.85450038562706"}}, "geometry": {"type": "Point", "coordinates": [-165.00649339468598, 71.71284395505728]}}, {"type": "Feature", "properties": {"norad_id": 40717, "name": "DMC3-FM3", "group": "dmc", "lat": -42.03064649066784, "lon": -132.30038930639986, "alt_km": 615.7326046489306, "timestamp": "2025-12-16T13:52:37.196344+00:00", "meta": {"OBJECT_NAME": "DMC3-FM3", "OBJECT_ID": "2015-032C", "EPOCH": "2025-12-15T21:54:03.578688", "MEAN_MOTION": 14.85434575, "ECCENTRICITY": 0.00044743, "INCLINATION": 97.6805, "RA_OF_ASC_NODE": 220.0707, "ARG_OF_PERICENTER": 316.8687, "MEAN_ANOMALY": 43.2177, "EPHEMERIS_TYPE": 0, "CLASSIFICATION_TYPE": "U", "NORAD_CAT_ID": 40717, "ELEMENT_SET_NO": 999, "REV_AT_EPOCH": 56270, "BSTAR": 4.7562493e-05, "MEAN_MOTION_DOT": 3.58e-06, "MEAN_MOTION_DDOT": 0}, "tle": {"line1": "1 40717U 15032C   25349.91254142  .00000358  00000+0  47562-4 0  9994", "line2": "2 40717  97.6805 220.0707 0004474 316.8687  43.2177 14.85434575562702"}}, "geometry": {"type": "Point", "coordinates": [-132.30038930639986, -42.03064649066784]}}]}